$$SOE
2460721.500000000, A.D. 2025-Feb-15 00:00:00.0000, 1.415479912299874E+08, -3.197393170629469E+08, -7.752513536092575E+07,
2460728.500000000, A.D. 2025-Feb-22 00:00:00.0000, 1.520565113765742E+08, -3.134473060679484E+08, -7.779374046700971E+07,
2460735.500000000, A.D. 2025-Mar-01 00:00:00.0000, 1.624027466826011E+08, -3.068208612142276E+08, -7.797932463446786E+07,
2460742.500000000, A.D. 2025-Mar-08 00:00:00.0000, 1.725739574224903E+08, -2.998638378513461E+08, -7.808087292149089E+07,
2460749.500000000, A.D. 2025-Mar-15 00:00:00.0000, 1.825574159881148E+08, -2.925806532436714E+08, -7.809747487369172E+07,
2460756.500000000, A.D. 2025-Mar-22 00:00:00.0000, 1.923404354010993E+08, -2.849762945715048E+08, -7.802832996863186E+07,
2460763.500000000, A.D. 2025-Mar-29 00:00:00.0000, 2.019104005013674E+08, -2.770563272481884E+08, -7.787275319089065E+07,
2460770.500000000, A.D. 2025-Apr-05 00:00:00.0000, 2.112548020071767E+08, -2.688269002581784E+08, -7.763018046524014E+07,
2460777.500000000, A.D. 2025-Apr-12 00:00:00.0000, 2.203612713700191E+08, -2.602947482660870E+08, -7.730017371624538E+07,
2460784.500000000, A.D. 2025-Apr-19 00:00:00.0000, 2.292176160660791E+08, -2.514671912430313E+08, -7.688242556179626E+07,
2460791.500000000, A.D. 2025-Apr-26 00:00:00.0000, 2.378118554059888E+08, -2.423521316921876E+08, -7.637676363470034E+07,
2460798.500000000, A.D. 2025-May-03 00:00:00.0000, 2.461322567691611E+08, -2.329580493503859E+08, -7.578315449459197E+07,
2460805.500000000, A.D. 2025-May-10 00:00:00.0000, 2.541673720674691E+08, -2.232939932729430E+08, -7.510170708681630E+07,
2460812.500000000, A.D. 2025-May-17 00:00:00.0000, 2.619060742359405E+08, -2.133695712799625E+08, -7.433267571142471E+07,
2460819.500000000, A.D. 2025-May-24 00:00:00.0000, 2.693375936734906E+08, -2.031949367777472E+08, -7.347646248148289E+07,
2460826.500000000, A.D. 2025-May-31 00:00:00.0000, 2.764515547950422E+08, -1.927807726292068E+08, -7.253361924681704E+07,
2460833.500000000, A.D. 2025-Jun-07 00:00:00.0000, 2.832380120349838E+08, -1.821382708857697E+08, -7.150484881714344E+07,
2460840.500000000, A.D. 2025-Jun-14 00:00:00.0000, 2.896874826720170E+08, -1.712791090975292E+08, -7.039100529576880E+07,
2460847.500000000, A.D. 2025-Jun-21 00:00:00.0000, 2.957909774203288E+08, -1.602154265484621E+08, -6.919309387889209E+07,
2460854.500000000, A.D. 2025-Jun-28 00:00:00.0000, 3.015400316458950E+08, -1.489597987519891E+08, -6.791227024338768E+07,
2460861.500000000, A.D. 2025-Jul-05 00:00:00.0000, 3.069267354316773E+08, -1.375252081777231E+08, -6.654983919418345E+07,
2460868.500000000, A.D. 2025-Jul-12 00:00:00.0000, 3.119437610554730E+08, -1.259250121676282E+08, -6.510725252181337E+07,
2460875.500000000, A.D. 2025-Jul-19 00:00:00.0000, 3.165843878456734E+08, -1.141729087951932E+08, -6.358610613797419E+07,
2460882.500000000, A.D. 2025-Jul-26 00:00:00.0000, 3.208425244250734E+08, -1.022829009311864E+08, -6.198813652631319E+07,
2460889.500000000, A.D. 2025-Aug-02 00:00:00.0000, 3.247127282317351E+08, -9.026925872896782E+07, -6.031521653391200E+07,
2460896.500000000, A.D. 2025-Aug-09 00:00:00.0000, 3.281902221863984E+08, -7.814648080071966E+07, -5.856935053369241E+07,
2460903.500000000, A.D. 2025-Aug-16 00:00:00.0000, 3.312709084531844E+08, -6.592925442049052E+07, -5.675266900163767E+07,
2460910.500000000, A.D. 2025-Aug-23 00:00:00.0000, 3.339513794810535E+08, -5.363241502039228E+07, -5.486742257051495E+07,
2460917.500000000, A.D. 2025-Aug-30 00:00:00.0000, 3.362289265795789E+08, -4.127090455206942E+07, -5.291597557300800E+07,
2460924.500000000, A.D. 2025-Sep-06 00:00:00.0000, 3.381015445756574E+08, -2.885972800269312E+07, -5.090079891025174E+07,
2460931.500000000, A.D. 2025-Sep-13 00:00:00.0000, 3.395679308807019E+08, -1.641391084583746E+07, -4.882446234872901E+07,
2460938.500000000, A.D. 2025-Sep-20 00:00:00.0000, 3.406274822635746E+08, -3.948459366286512E+06, -4.668962673482579E+07,
2460945.500000000, A.D. 2025-Sep-27 00:00:00.0000, 3.412802904379451E+08, 8.521678971621027E+06, -4.449903602646213E+07,
2460952.500000000, A.D. 2025-Oct-04 00:00:00.0000, 3.415271345319204E+08, 2.098165538290627E+07, -4.225550897272125E+07,
2460959.500000000, A.D. 2025-Oct-11 00:00:00.0000, 3.413694701811793E+08, 3.341675865120015E+07, -3.996193054670841E+07,
2460966.500000000, A.D. 2025-Oct-18 00:00:00.0000, 3.408094156714703E+08, 4.581245253792737E+07, -3.762124324394345E+07,
2460973.500000000, A.D. 2025-Oct-25 00:00:00.0000, 3.398497354372574E+08, 5.815441150616451E+07, -3.523643832229775E+07,
2460980.500000000, A.D. 2025-Nov-01 00:00:00.0000, 3.384938211446440E+08, 7.042855457949102E+07, -3.281054704868733E+07,
2460987.500000000, A.D. 2025-Nov-08 00:00:00.0000, 3.367456705990193E+08, 8.262107713207969E+07, -3.034663201848840E+07,
2460994.500000000, A.D. 2025-Nov-15 00:00:00.0000, 3.346098648444336E+08, 9.471848040327051E+07, -2.784777862276994E+07,
2461001.500000000, A.D. 2025-Nov-22 00:00:00.0000, 3.320915440841025E+08, 1.067075988324506E+08, -2.531708673496363E+07,
2461008.500000000, A.D. 2025-Nov-29 00:00:00.0000, 3.291963824954310E+08, 1.185756262519622E+08, -2.275766255795681E+07,
2461015.500000000, A.D. 2025-Dec-06 00:00:00.0000, 3.259305598942729E+08, 1.303101407386643E+08, -2.017261047718012E+07,
2461022.500000000, A.D. 2025-Dec-13 00:00:00.0000, 3.223007309256703E+08, 1.418991247146513E+08, -1.756502527495896E+07,
2461029.500000000, A.D. 2025-Dec-20 00:00:00.0000, 3.183139955085065E+08, 1.533309812983935E+08, -1.493798497786152E+07,
2461036.500000000, A.D. 2025-Dec-27 00:00:00.0000, 3.139778696825862E+08, 1.645945495022311E+08, -1.229454405598111E+07,
2461043.500000000, A.D. 2026-Jan-03 00:00:00.0000, 3.093002556169677E+08, 1.756791176899280E+08, -9.637726915046982E+06,
2461050.500000000, A.D. 2026-Jan-10 00:00:00.0000, 3.042894110993198E+08, 1.865744346641374E+08, -6.970521766569413E+06,
2461057.500000000, A.D. 2026-Jan-17 00:00:00.0000, 2.989539189369020E+08, 1.972707183584505E+08, -4.295874919619367E+06,
2461064.500000000, A.D. 2026-Jan-24 00:00:00.0000, 2.933026565315645E+08, 2.077586622387028E+08, -1.616685509596497E+06,
2461071.500000000, A.D. 2026-Jan-31 00:00:00.0000, 2.873447658220865E+08, 2.180294395019505E+08, 1.064199327675909E+06,
2461078.500000000, A.D. 2026-Feb-07 00:00:00.0000, 2.810896238101108E+08, 2.280747051235158E+08, 3.743988824835822E+06,
2461085.500000000, A.D. 2026-Feb-14 00:00:00.0000, 2.745468140626615E+08, 2.378865958545180E+08, 6.419952472911671E+06,
2461092.500000000, A.D. 2026-Feb-21 00:00:00.0000, 2.677260997041076E+08, 2.474577288705530E+08, 9.089423449796095E+06,
2461099.500000000, A.D. 2026-Feb-28 00:00:00.0000, 2.606373969183666E+08, 2.567812003496669E+08, 1.174980178979246E+07,
2461106.500000000, A.D. 2026-Mar-07 00:00:00.0000, 2.532907469889973E+08, 2.658505821623213E+08, 1.439855733594991E+07,
2461113.500000000, A.D. 2026-Mar-14 00:00:00.0000, 2.456962897345915E+08, 2.746599144802572E+08, 1.703323204498298E+07,
2461120.500000000, A.D. 2026-Mar-21 00:00:00.0000, 2.378642401898548E+08, 2.832036973314772E+08, 1.965144173395076E+07,
2461127.500000000, A.D. 2026-Mar-28 00:00:00.0000, 2.298048665677334E+08, 2.914768822538255E+08, 2.225087755409735E+07,
2461134.500000000, A.D. 2026-Apr-04 00:00:00.0000, 2.215284689282308E+08, 2.994748632053632E+08, 2.482930718641895E+07,
2461141.500000000, A.D. 2026-Apr-11 00:00:00.0000, 2.130453588444205E+08, 3.071934664950562E+08, 2.738457572342792E+07,
2461148.500000000, A.D. 2026-Apr-18 00:00:00.0000, 2.043658402318553E+08, 3.146289398505325E+08, 2.991460624229760E+07,
2461155.500000000, A.D. 2026-Apr-25 00:00:00.0000, 1.955001913882224E+08, 3.217779407586669E+08, 3.241740008810271E+07,
2461162.500000000, A.D. 2026-May-02 00:00:00.0000, 1.864586482695829E+08, 3.286375241635944E+08, 3.489103688426270E+07,
2461169.500000000, A.D. 2026-May-09 00:00:00.0000, 1.772513891160433E+08, 3.352051295608691E+08, 3.733367427540672E+07,
2461176.500000000, A.D. 2026-May-16 00:00:00.0000, 1.678885207846809E+08, 3.414785677227081E+08, 3.974354740068671E+07,
2461183.500000000, A.D. 2026-May-23 00:00:00.0000, 1.583800668150068E+08, 3.474560081656782E+08, 4.211896819684361E+07,
2461190.500000000, A.D. 2026-May-30 00:00:00.0000, 1.487359551148046E+08, 3.531359677578144E+08, 4.445832476657848E+07,
2461197.500000000, A.D. 2026-Jun-06 00:00:00.0000, 1.389660049045806E+08, 3.585172972631427E+08, 4.676008059208070E+07,
2461204.500000000, A.D. 2026-Jun-13 00:00:00.0000, 1.290799165431290E+08, 3.635991660971168E+08, 4.902277329294027E+07,
2461211.500000000, A.D. 2026-Jun-20 00:00:00.0000, 1.190872636918827E+08, 3.683810482827882E+08, 5.124501323086762E+07,
2461218.500000000, A.D. 2026-Jun-27 00:00:00.0000, 1.089974860723266E+08, 3.728627093208823E+08, 5.342548210490791E+07,
2461225.500000000, A.D. 2026-Jul-04 00:00:00.0000, 9.881988276672865E+07, 3.770441932478747E+08, 5.556293148901255E+07,
2461232.500000000, A.D. 2026-Jul-11 00:00:00.0000, 8.856360626656677E+07, 3.809258097942845E+08, 5.765618129229692E+07,
2461239.500000000, A.D. 2026-Jul-18 00:00:00.0000, 7.823765731185974E+07, 3.845081217074373E+08, 5.970411814901017E+07,
2461246.500000000, A.D. 2026-Jul-25 00:00:00.0000, 6.785088049649124E+07, 3.877919322745394E+08, 6.170569374865562E+07,
2461253.500000000, A.D. 2026-Aug-01 00:00:00.0000, 5.741196063868149E+07, 3.907782730260509E+08, 6.365992310943623E+07,
2461260.500000000, A.D. 2026-Aug-08 00:00:00.0000, 4.692942008313442E+07, 3.934683916071361E+08, 6.556588278304498E+07,
2461267.500000000, A.D. 2026-Aug-15 00:00:00.0000, 3.641161730246505E+07, 3.958637402879237E+08, 6.742270899956708E+07,
2461274.500000000, A.D. 2026-Aug-22 00:00:00.0000, 2.586674599204899E+07, 3.979659663514332E+08, 6.922959593147412E+07,
2461281.500000000, A.D. 2026-Aug-29 00:00:00.0000, 1.530283232726186E+07, 3.997769029965212E+08, 7.098579418194139E+07,
2461288.500000000, A.D. 2026-Sep-05 00:00:00.0000, 4.727732471662898E+06, 4.012985578921968E+08, 7.269060907379538E+07,
$$EOE